47290,ONEWEB-0144,2020,109.72,148.0,+,87.88,Active,1,LEO,Russia,UK,Commercial,Communications,Soyuz,1 47290U 20100AJ  25083.03379852 -.00000013  00000+0 -72576-4 0  9996,2 47290  87.8806  80.2267 0001644  82.5767 277.5548 13.12443217205526,13.12443217,0.0001644,LEO
47291,ONEWEB-0145,2020,109.72,148.0,+,87.88,Active,1,LEO,Russia,UK,Commercial,Communications,Soyuz,1 47291U 20100AK  25083.69073180 -.00000105  00000+0 -32788-3 0  9996,2 47291  87.8806  80.1209 0001833  86.4078 273.7260 13.12440874205806,13.12440874,0.0001833,LEO
47292,ONEWEB-0146,2020,109.72,148.0,+,87.88,Active,1,LEO,Russia,UK,Commercial,Communications,Soyuz,1 47292U 20100AL  25083.45878434 -.00000008  00000+0 -56275-4 0  9996,2 47292  87.8806  80.1531 0002278  90.9140 269.2250 13.12441222205682,13.12441222,0.0002278,LEO
47293,ONEWEB-0147,2020,109.72,148.0,+,87.88,Active,1,LEO,Russia,UK,Commercial,Communications,Soyuz,1 47293U 20100AM  25083.50095664  .00000183  00000+0  47253-3 0  9996,2 47293  87.8804  80.1278 0001931  78.5133 281.6212 13.12442768205589,13.12442768,0.0001931,LEO
48042,ONEWEB-0115,2021,109.63,148.0,+,87.89,Active,1,LEO,Russia,UK,Commercial,Communications,Soyuz,1 48042U 21025A   25083.34702906  .00000414  00000+0  10987-2 0  9992,2 48042  87.8931  49.6208 0001987  83.2169 276.9187 13.13468526194541,13.13468526,0.0001987,LEO
48043,ONEWEB-0152,2021,109.63,148.0,+,87.89,Active,1,LEO,Russia,UK,Commercial,Communications,Soyuz,1 48043U 21025B   25083.36059100  .00000946  00000+0  25549-2 0  9996,2 48043  87.8933  49.6275 0002045  82.3720 277.7641 13.13476427194506,13.13476427,0.0002045,LEO
48044,ONEWEB-0153,2021,109.63,148.0,+,87.89,Active,1,LEO,Russia,UK,Commercial,Communications,Soyuz,1 48044U 21025C   25083.64328068  .00000167  00000+0  42231-3 0  9993,2 48044  87.8938  49.5662 0001869  82.7532 277.3809 13.13470371194547,13.13470371,0.0001869,LEO
48045,ONEWEB-0154,2021,109.63,148.0,+,87.89,Active,1,LEO,Russia,UK,Commercial,Communications,Soyuz,1 48045U 21025D   25083.33519383  .00000238  00000+0  61721-3 0  9996,2 48045  87.8932  49.6301 0001974  82.2180 277.9173 13.13471578194454,13.13471578,0.0001974,LEO
